#aV2014  4 15  0  0  0.00000000     288 DD+AD WGS84 FIT  NGA
## 1788 172800.00000000   300.00000000 56762 0.0000000000000
+   32     1  2  3  4  5  6  7  8  9 10 11 12 13 14 15 16 17
+         18 19 20 21 22 23 24 25 26 27 28 29 30 31 32  0  0
+          0  0  0  0  0  0  0  0  0  0  0  0  0  0  0  0  0
+          0  0  0  0  0  0  0  0  0  0  0  0  0  0  0  0  0
+          0  0  0  0  0  0  0  0  0  0  0  0  0  0  0  0  0
++         2  2  2  2  2  2  2  2  2  2  2  2  2  2  2  2  2
++         2  2  2  2  2  2  2  2  2  2  2  2  2  2  2  0  0
++         0  0  0  0  0  0  0  0  0  0  0  0  0  0  0  0  0
++         0  0  0  0  0  0  0  0  0  0  0  0  0  0  0  0  0
++         0  0  0  0  0  0  0  0  0  0  0  0  0  0  0  0  0
%c cc cc ccc ccc cccc cccc cccc cccc ccccc ccccc ccccc ccccc
%c cc cc ccc ccc cccc cccc cccc cccc ccccc ccccc ccccc ccccc
%f  0.0000000  0.000000000  0.00000000000  0.000000000000000
%f  0.0000000  0.000000000  0.00000000000  0.000000000000000
%i    0    0    0    0      0      0      0      0         0
%i    0    0    0    0      0      0      0      0         0
/*      NGA, ST. LOUIS,MO.                                  
/*   EPHEMERIS COMPUTED FROM  1 DAYS OF DATA                
/*   EPOCHA SMOOTHER                                       
/* CCCCCCCCCCCCCCCCCCCCCCCCCCCCCCCCCCCCCCCCCCCCCCCCCCCCCCCCC
*  2014  4 15 11 10  0.00000000
P  1 -10808.298633  21408.039432 -11298.979152      8.653136                    
V  1 -12068.796065   8160.898286  27206.809681      0.015280                    
P  2  21310.879185 -12243.615852  -9114.958006    489.839059                    
V  2  -5914.705842  11233.858544 -28540.420187      0.021559                    
P  3 -10915.742078  12351.867585  20255.301577    352.050620                    
V  3 -11588.688541 -24495.263159   8623.392094      0.049724                    
P  4  18753.893441   1207.457135 -19164.637814      6.651187                    
V  4 -15828.123106  17685.366682 -14374.663337      0.002108                    
P  5  21824.788659  -4720.831348  14465.314660   -378.767936                    
V  5  17115.383921   7138.814281 -23270.227676      0.021903                    
P  6 -25793.112731  -6618.685273   1529.605928   -155.340823                    
V  6  -1469.615083  -2514.371696 -31973.611909     -0.019975                    
P  7   2562.066246  16657.772761  20509.858669    335.542015                    
V  7 -19697.657294  16914.073464 -11634.874727      0.042235                    
P  8  11525.115565   9304.849747  22244.662311     12.913406                    
V  8 -22110.614422  16732.247306   3898.749748      0.002362                    
P  9  13756.647979   6453.253222  21275.976639    320.304030                    
V  9 -19962.497378  19921.595309   6528.681439      0.028854                    
P 10  25157.232534   9050.480887  -2095.084817   -121.736581                    
V 10  -2992.872847   2232.825423 -30929.072230     -0.013846                    
P 11 -11375.244752  23862.467634  -1221.080382   -480.860445                    
V 11  -5069.933313  -1493.193170  30184.723921     -0.032063                    
P 12   5899.037111 -13466.584791 -22172.505982    198.742084                    
V 12  26512.708324   8809.919251   1925.252515      0.024208                    
P 13   4553.303428  26045.817552   1179.756590      9.533695                    
V 13  -2153.301718   1994.987673 -32186.028970     -0.039546                    
P 14 -13730.924127 -16445.961560 -15576.806905    181.466007                    
V 14  -1780.580265 -20089.233675  22325.767915     -0.033544                    
P 15   6663.957625 -19732.952058  16259.069843   -174.020313                    
V 15   8297.665452  19384.214738  20344.539490     -0.021363                    
P 16 -21970.993324   2798.932781  14882.453988   -223.112595                    
V 16 -17355.756736  -7272.648962 -23830.527102      0.017506                    
P 17  14528.627609  15163.097817 -16137.721062    -85.217167                    
V 17   2636.934551  20769.288821  21323.414784     -0.032058                    
P 18 -14167.523243 -16366.462025  16049.766291    313.369678                    
V 18  19453.408944   2976.071514  20452.227083      0.023133                    
P 19  -9239.726813  17708.145918  17143.244998   -451.141353                    
V 19  -5369.692613 -21622.810467  19730.141889     -0.022905                    
P 20  -4373.699012  15434.845982 -21356.390796    179.868812                    
V 20 -26170.215683  -5849.784451   1208.891018      0.036954                    
P 21  -6604.919503 -15487.969980  21095.862391   -355.459604                    
V 21  18898.181324 -17233.601475  -7416.862725     -0.022292                    
P 22 -23613.314788 -11018.824855   5776.595763    226.991904                    
V 22   7799.379641  -1640.247199  29662.146871      0.028737                    
P 23  -1864.151874  24044.011877 -10545.017313    -12.551493                    
V 23  -6202.348721 -12587.944478 -27751.121576     -0.031669                    
P 24  14564.333211 -21126.623157  -6687.646992    -26.727218                    
V 24   8048.111287  -3947.509965  30184.030210     -0.006338                    
P 25  -8024.600653 -16053.126071 -19690.540003     21.802196                    
V 25  24123.511020   5715.092174 -14408.992631      0.009749                    
P 26  13094.295435  -8154.980858  20917.790314    108.107336                    
V 26   5025.341709  27689.055611   7707.801007     -0.113886                    
P 27 -14031.644992   6098.793284  21705.246080    -19.654578                    
V 27  -7137.293990 -26625.216235   2917.977379      0.008069                    
P 28  20943.360698  13915.489805   9361.828987    347.445489                    
V 28 -10863.077008  -2145.483214  29270.407920      0.029132                    
P 29  -4890.706597 -26128.409239   -486.810605    525.587918                    
V 29   2613.211616    158.149739 -31887.926262      0.026271                    
P 30  11111.644366  10546.186975  21689.896562     -0.781205                    
V 30 -21079.467914  17762.987615   2139.953385     -0.030782                    
P 31 -20431.981437   3574.820123 -16619.098907    334.217588                    
V 31  14735.512861 -15334.997137 -20916.275812      0.000744                    
P 32 -16517.649206   8229.116441 -18838.582275   -448.958863                    
V 32 -22074.662802 -10279.024256  15351.690349      0.076295                    
EOF
